{
  "links" : {
    "next" : "https://api.nasa.gov/neo/rest/v1/feed?start_date=1999-10-16&end_date=1999-10-16&detailed=true&api_key=t0TVs3DtDT2H8Oy2Zy8m2eVrNsAVKAexjcZXUckd",
    "prev" : "https://api.nasa.gov/neo/rest/v1/feed?start_date=1999-10-14&end_date=1999-10-14&detailed=true&api_key=t0TVs3DtDT2H8Oy2Zy8m2eVrNsAVKAexjcZXUckd",
    "self" : "https://api.nasa.gov/neo/rest/v1/feed?start_date=1999-10-15&end_date=1999-10-15&detailed=true&api_key=t0TVs3DtDT2H8Oy2Zy8m2eVrNsAVKAexjcZXUckd"
  },
  "element_count" : 12,
  "near_earth_objects" : {
    "1999-10-15" : [ {
      "links" : {
        "self" : "https://api.nasa.gov/neo/rest/v1/neo/3752777?api_key=t0TVs3DtDT2H8Oy2Zy8m2eVrNsAVKAexjcZXUckd"
      },
      "neo_reference_id" : "3752777",
      "name" : "(2016 JV5)",
      "nasa_jpl_url" : "http://ssd.jpl.nasa.gov/sbdb.cgi?sstr=3752777",
      "absolute_magnitude_h" : 23.2,
      "estimated_diameter" : {
        "kilometers" : {
          "estimated_diameter_min" : 0.0608912622,
          "estimated_diameter_max" : 0.1361570015
        },
        "meters" : {
          "estimated_diameter_min" : 60.8912622106,
          "estimated_diameter_max" : 136.1570015386
        },
        "miles" : {
          "estimated_diameter_min" : 0.0378360645,
          "estimated_diameter_max" : 0.0846040122
        },
        "feet" : {
          "estimated_diameter_min" : 199.7744887109,
          "estimated_diameter_max" : 446.7093369279
        }
      },
      "is_potentially_hazardous_asteroid" : false,
      "close_approach_data" : [ {
        "close_approach_date" : "1999-10-15",
        "epoch_date_close_approach" : 939970800000,
        "relative_velocity" : {
          "kilometers_per_second" : "13.4932987401",
          "kilometers_per_hour" : "48575.8754642452",
          "miles_per_hour" : "30183.1599516583"
        },
        "miss_distance" : {
          "astronomical" : "0.3817748553",
          "lunar" : "148.5104064941",
          "kilometers" : "57112704",
          "miles" : "35488188"
        },
        "orbiting_body" : "Earth"
      } ],
      "orbital_data" : {
        "orbit_id" : "11",
        "orbit_determination_date" : "2017-04-06 08:26:09",
        "orbit_uncertainty" : "6",
        "minimum_orbit_intersection" : ".0646605",
        "jupiter_tisserand_invariant" : "6.587",
        "epoch_osculation" : "2458000.5",
        "eccentricity" : ".3210186450839018",
        "semi_major_axis" : ".8956201189638118",
        "inclination" : "8.450479814445819",
        "ascending_node_longitude" : "70.27609261238204",
        "orbital_period" : "309.5880496410178",
        "perihelion_distance" : ".608109361864166",
        "perihelion_argument" : "338.574296044691",
        "aphelion_distance" : "1.183130876063458",
        "perihelion_time" : "2457979.264498449304",
        "mean_anomaly" : "24.69339681268349",
        "mean_motion" : "1.16283558237289",
        "equinox" : "J2000"
      }
    }, {
      "links" : {
        "self" : "https://api.nasa.gov/neo/rest/v1/neo/3760530?api_key=t0TVs3DtDT2H8Oy2Zy8m2eVrNsAVKAexjcZXUckd"
      },
      "neo_reference_id" : "3760530",
      "name" : "(2016 TP11)",
      "nasa_jpl_url" : "http://ssd.jpl.nasa.gov/sbdb.cgi?sstr=3760530",
      "absolute_magnitude_h" : 24.3,
      "estimated_diameter" : {
        "kilometers" : {
          "estimated_diameter_min" : 0.0366906138,
          "estimated_diameter_max" : 0.0820427065
        },
        "meters" : {
          "estimated_diameter_min" : 36.6906137531,
          "estimated_diameter_max" : 82.0427064882
        },
        "miles" : {
          "estimated_diameter_min" : 0.0227984834,
          "estimated_diameter_max" : 0.0509789586
        },
        "feet" : {
          "estimated_diameter_min" : 120.3760332259,
          "estimated_diameter_max" : 269.1689931548
        }
      },
      "is_potentially_hazardous_asteroid" : false,
      "close_approach_data" : [ {
        "close_approach_date" : "1999-10-15",
        "epoch_date_close_approach" : 939970800000,
        "relative_velocity" : {
          "kilometers_per_second" : "16.231311383",
          "kilometers_per_hour" : "58432.72097893",
          "miles_per_hour" : "36307.8204327135"
        },
        "miss_distance" : {
          "astronomical" : "0.3483004668",
          "lunar" : "135.4888763428",
          "kilometers" : "52105008",
          "miles" : "32376550"
        },
        "orbiting_body" : "Earth"
      } ],
      "orbital_data" : {
        "orbit_id" : "17",
        "orbit_determination_date" : "2017-04-06 08:23:16",
        "orbit_uncertainty" : "5",
        "minimum_orbit_intersection" : ".00796069",
        "jupiter_tisserand_invariant" : "5.898",
        "epoch_osculation" : "2458000.5",
        "eccentricity" : ".1775604273052976",
        "semi_major_axis" : "1.036546754603182",
        "inclination" : "1.537551332024034",
        "ascending_node_longitude" : "168.6154966654634",
        "orbital_period" : "385.4621781702726",
        "perihelion_distance" : ".8524970699339214",
        "perihelion_argument" : "108.1192411696545",
        "aphelion_distance" : "1.220596439272442",
        "perihelion_time" : "2457970.525395845247",
        "mean_anomaly" : "27.99459481844238",
        "mean_motion" : ".9339437703301072",
        "equinox" : "J2000"
      }
    }, {
      "links" : {
        "self" : "https://api.nasa.gov/neo/rest/v1/neo/2483408?api_key=t0TVs3DtDT2H8Oy2Zy8m2eVrNsAVKAexjcZXUckd"
      },
      "neo_reference_id" : "2483408",
      "name" : "483408 (1999 TZ4)",
      "nasa_jpl_url" : "http://ssd.jpl.nasa.gov/sbdb.cgi?sstr=2483408",
      "absolute_magnitude_h" : 19.5,
      "estimated_diameter" : {
        "kilometers" : {
          "estimated_diameter_min" : 0.3346223745,
          "estimated_diameter_max" : 0.7482383761
        },
        "meters" : {
          "estimated_diameter_min" : 334.6223744549,
          "estimated_diameter_max" : 748.2383760735
        },
        "miles" : {
          "estimated_diameter_min" : 0.2079246394,
          "estimated_diameter_max" : 0.464933628
        },
        "feet" : {
          "estimated_diameter_min" : 1097.8424710066,
          "estimated_diameter_max" : 2454.8503937571
        }
      },
      "is_potentially_hazardous_asteroid" : false,
      "close_approach_data" : [ {
        "close_approach_date" : "1999-10-15",
        "epoch_date_close_approach" : 939970800000,
        "relative_velocity" : {
          "kilometers_per_second" : "16.0017335889",
          "kilometers_per_hour" : "57606.2409198996",
          "miles_per_hour" : "35794.2778649232"
        },
        "miss_distance" : {
          "astronomical" : "0.364148307",
          "lunar" : "141.6537017822",
          "kilometers" : "54475812",
          "miles" : "33849700"
        },
        "orbiting_body" : "Earth"
      } ],
      "orbital_data" : {
        "orbit_id" : "27",
        "orbit_determination_date" : "2017-04-23 06:19:52",
        "orbit_uncertainty" : "0",
        "minimum_orbit_intersection" : ".364596",
        "jupiter_tisserand_invariant" : "4.339",
        "epoch_osculation" : "2458000.5",
        "eccentricity" : ".1570848308864059",
        "semi_major_axis" : "1.514619112256417",
        "inclination" : "32.0087139480495",
        "ascending_node_longitude" : "15.09939548675791",
        "orbital_period" : "680.8533456510954",
        "perihelion_distance" : "1.276695425150299",
        "perihelion_argument" : "61.58255897057085",
        "aphelion_distance" : "1.752542799362534",
        "perihelion_time" : "2457670.606362204135",
        "mean_anomaly" : "174.4306763932261",
        "mean_motion" : ".5287482279399456",
        "equinox" : "J2000"
      }
    } ]
  }
}